start=new Date('2022-06-30T00:00:00.000Z').valueOf();
sats=[{"RCS_SIZE":"LARGE","INCLINATION":"53.2157","APOAPSIS":"541.425","MEAN_ELEMENT_THEORY":"SGP4","COUNTRY_CODE":"US","LAUNCH_DATE":"2021-12-02","OBJECT_TYPE":"PAYLOAD","TIME_SYSTEM":"UTC","RA_OF_ASC_NODE":"86.0577","EPOCH":"2022-06-29T10:57:52.729920","ELEMENT_SET_NO":"999","EPHEMERIS_TYPE":"0","REV_AT_EPOCH":"3184","ARG_OF_PERICENTER":"63.1977","SEMIMAJOR_AXIS":"6917.897","GP_ID":"207093349","CENTER_NAME":"EARTH","FILE":"3505485","NORAD_CAT_ID":"49747","PERIOD":"95.438","MEAN_MOTION_DDOT":"0.0000000000000","ECCENTRICITY":"0.00024030","BSTAR":"-0.00003741400000","CLASSIFICATION_TYPE":"U","REF_FRAME":"TEME","OBJECT_NAME":"STARLINK-3247","MEAN_MOTION_DOT":"-0.00000884","PERIAPSIS":"538.100","DECAY_DATE":null,"MEAN_ANOMALY":"296.9261","OBJECT_ID":"2021-115Z","TLE_LINE1":"1 49747U 21115Z   22180.45686030 -.00000884  00000-0 -37414-4 0  9991","TLE_LINE2":"2 49747  53.2157  86.0577 0002403  63.1977 296.9261 15.08834491 31845","SITE":"AFETR","MEAN_MOTION":"15.08834491"},{"MEAN_ELEMENT_THEORY":"SGP4","INCLINATION":"53.2196","RCS_SIZE":"LARGE","APOAPSIS":"541.581","EPOCH":"2022-06-29T20:56:42.305568","ELEMENT_SET_NO":"999","EPHEMERIS_TYPE":"0","COUNTRY_CODE":"US","LAUNCH_DATE":"2021-12-02","OBJECT_TYPE":"PAYLOAD","RA_OF_ASC_NODE":"84.2053","TIME_SYSTEM":"UTC","REV_AT_EPOCH":"3191","GP_ID":"207121023","SEMIMAJOR_AXIS":"6917.910","ARG_OF_PERICENTER":"62.1197","PERIOD":"95.438","MEAN_MOTION_DDOT":"0.0000000000000","ECCENTRICITY":"0.00026110","NORAD_CAT_ID":"49748","FILE":"3505610","CENTER_NAME":"EARTH","MEAN_MOTION_DOT":"-0.00000389","OBJECT_NAME":"STARLINK-3248","BSTAR":"-0.00000629340000","CLASSIFICATION_TYPE":"U","REF_FRAME":"TEME","TLE_LINE1":"1 49748U 21115AA  22180.87271187 -.00000389  00000-0 -62934-5 0  9997","TLE_LINE2":"2 49748  53.2196  84.2053 0002611  62.1197 298.0060 15.08830344 31913","PERIAPSIS":"537.969","DECAY_DATE":null,"MEAN_ANOMALY":"298.0060","OBJECT_ID":"2021-115AA","MEAN_MOTION":"15.08830344","SITE":"AFETR"},{"EPOCH":"2022-06-29T11:08:29.588640","ELEMENT_SET_NO":"999","EPHEMERIS_TYPE":"0","COUNTRY_CODE":"US","OBJECT_TYPE":"PAYLOAD","LAUNCH_DATE":"2021-12-02","TIME_SYSTEM":"UTC","RA_OF_ASC_NODE":"86.0318","MEAN_ELEMENT_THEORY":"SGP4","INCLINATION":"53.2165","RCS_SIZE":"LARGE","APOAPSIS":"541.527","SEMIMAJOR_AXIS":"6918.019","GP_ID":"207093850","ARG_OF_PERICENTER":"63.6806","REV_AT_EPOCH":"3184","MEAN_MOTION_DOT":"0.00008732","OBJECT_NAME":"STARLINK-3250","BSTAR":"0.00056673000000","CLASSIFICATION_TYPE":"U","REF_FRAME":"TEME","PERIOD":"95.440","MEAN_MOTION_DDOT":"0.0000000000000","ECCENTRICITY":"0.00023740","FILE":"3505485","NORAD_CAT_ID":"49749","CENTER_NAME":"EARTH","SITE":"AFETR","MEAN_MOTION":"15.08794548","TLE_LINE1":"1 49749U 21115AB  22180.46423135  .00008732  00000-0  56673-3 0  9994","TLE_LINE2":"2 49749  53.2165  86.0318 0002374  63.6806 296.4430 15.08794548 31843","PERIAPSIS":"538.242","DECAY_DATE":null,"OBJECT_ID":"2021-115AB","MEAN_ANOMALY":"296.4430"},{"REV_AT_EPOCH":"3302","GP_ID":"207097230","SEMIMAJOR_AXIS":"6917.900","ARG_OF_PERICENTER":"53.8121","MEAN_ELEMENT_THEORY":"SGP4","INCLINATION":"53.2184","RCS_SIZE":"LARGE","APOAPSIS":"542.062","EPOCH":"2022-06-29T21:07:18.121440","ELEMENT_SET_NO":"999","EPHEMERIS_TYPE":"0","COUNTRY_CODE":"US","OBJECT_TYPE":"PAYLOAD","LAUNCH_DATE":"2021-12-02","RA_OF_ASC_NODE":"84.1757","TIME_SYSTEM":"UTC","TLE_LINE1":"1 49750U 21115AC  22180.88007085 -.00002266  00000-0 -12429-3 0  9993","TLE_LINE2":"2 49750  53.2184  84.1757 0003320  53.8121 306.3177 15.08833606 33025","PERIAPSIS":"537.468","DECAY_DATE":null,"MEAN_ANOMALY":"306.3177","OBJECT_ID":"2021-115AC","SITE":"AFETR","MEAN_MOTION":"15.08833606","PERIOD":"95.438","MEAN_MOTION_DDOT":"0.0000000000000","ECCENTRICITY":"0.00033200","NORAD_CAT_ID":"49750","FILE":"3505594","CENTER_NAME":"EARTH","MEAN_MOTION_DOT":"-0.00002266","OBJECT_NAME":"STARLINK-3236","CLASSIFICATION_TYPE":"U","BSTAR":"-0.00012429000000","REF_FRAME":"TEME"},{"SEMIMAJOR_AXIS":"6917.902","GP_ID":"207097223","ARG_OF_PERICENTER":"58.2735","REV_AT_EPOCH":"3302","EPOCH":"2022-06-29T20:51:23.918112","ELEMENT_SET_NO":"999","EPHEMERIS_TYPE":"0","COUNTRY_CODE":"US","LAUNCH_DATE":"2021-12-02","OBJECT_TYPE":"PAYLOAD","TIME_SYSTEM":"UTC","RA_OF_ASC_NODE":"84.2158","MEAN_ELEMENT_THEORY":"SGP4","RCS_SIZE":"LARGE","INCLINATION":"53.2197","APOAPSIS":"541.392","SITE":"AFETR","MEAN_MOTION":"15.08832905","TLE_LINE1":"1 49751U 21115AD  22180.86902683  .00000310  00000-0  37607-4 0  9992","TLE_LINE2":"2 49751  53.2197  84.2158 0002349  58.2735 301.8486 15.08832905 33020","PERIAPSIS":"538.142","DECAY_DATE":null,"MEAN_ANOMALY":"301.8486","OBJECT_ID":"2021-115AD","MEAN_MOTION_DOT":"0.00000310","OBJECT_NAME":"STARLINK-3229","CLASSIFICATION_TYPE":"U","BSTAR":"0.00003760700000","REF_FRAME":"TEME","PERIOD":"95.438","MEAN_MOTION_DDOT":"0.0000000000000","ECCENTRICITY":"0.00023490","CENTER_NAME":"EARTH","FILE":"3505593","NORAD_CAT_ID":"49751"},{"EPOCH":"2022-06-29T21:29:48.315840","EPHEMERIS_TYPE":"0","ELEMENT_SET_NO":"999","COUNTRY_CODE":"US","RA_OF_ASC_NODE":"74.1087","TIME_SYSTEM":"UTC","LAUNCH_DATE":"2021-12-02","OBJECT_TYPE":"PAYLOAD","MEAN_ELEMENT_THEORY":"SGP4","INCLINATION":"53.2167","RCS_SIZE":"LARGE","APOAPSIS":"541.046","SEMIMAJOR_AXIS":"6917.872","GP_ID":"207121524","ARG_OF_PERICENTER":"57.8901","REV_AT_EPOCH":"3205","MEAN_MOTION_DOT":"0.00000471","OBJECT_NAME":"STARLINK-3209","REF_FRAME":"TEME","CLASSIFICATION_TYPE":"U","BSTAR":"0.00004769600000","MEAN_MOTION_DDOT":"0.0000000000000","PERIOD":"95.437","ECCENTRICITY":"0.00018920","FILE":"3505610","NORAD_CAT_ID":"49752","CENTER_NAME":"EARTH","SITE":"AFETR","MEAN_MOTION":"15.08842674","TLE_LINE1":"1 49752U 21115AE  22180.89569810  .00000471  00000-0  47696-4 0  9994","TLE_LINE2":"2 49752  53.2167  74.1087 0001892  57.8901 302.2274 15.08842674 32055","DECAY_DATE":null,"PERIAPSIS":"538.428","MEAN_ANOMALY":"302.2274","OBJECT_ID":"2021-115AE"},{"ARG_OF_PERICENTER":"63.5692","GP_ID":"207121775","SEMIMAJOR_AXIS":"6917.883","REV_AT_EPOCH":"3191","TIME_SYSTEM":"UTC","RA_OF_ASC_NODE":"84.1916","LAUNCH_DATE":"2021-12-02","OBJECT_TYPE":"PAYLOAD","COUNTRY_CODE":"US","EPHEMERIS_TYPE":"0","ELEMENT_SET_NO":"999","EPOCH":"2022-06-29T21:01:58.190016","APOAPSIS":"541.582","RCS_SIZE":"LARGE","INCLINATION":"53.2183","MEAN_ELEMENT_THEORY":"SGP4","SITE":"AFETR","MEAN_MOTION":"15.08839036","MEAN_ANOMALY":"296.5572","OBJECT_ID":"2021-115AF","DECAY_DATE":null,"PERIAPSIS":"537.914","TLE_LINE2":"2 49753  53.2183  84.1916 0002651  63.5692 296.5572 15.08839036 31919","TLE_LINE1":"1 49753U 21115AF  22180.87636794 -.00003074  00000-0 -17506-3 0  9999","REF_FRAME":"TEME","BSTAR":"-0.00017506000000","CLASSIFICATION_TYPE":"U","MEAN_MOTION_DOT":"-0.00003074","OBJECT_NAME":"STARLINK-3200","NORAD_CAT_ID":"49753","FILE":"3505610","CENTER_NAME":"EARTH","ECCENTRICITY":"0.00026510","MEAN_MOTION_DDOT":"0.0000000000000","PERIOD":"95.438"},{"REV_AT_EPOCH":"3205","SEMIMAJOR_AXIS":"6917.928","GP_ID":"207120024","ARG_OF_PERICENTER":"64.8252","MEAN_ELEMENT_THEORY":"SGP4","APOAPSIS":"546.121","INCLINATION":"53.2176","RCS_SIZE":"LARGE","EPHEMERIS_TYPE":"0","ELEMENT_SET_NO":"999","EPOCH":"2022-06-29T21:20:37.365504","TIME_SYSTEM":"UTC","RA_OF_ASC_NODE":"74.1197","OBJECT_TYPE":"PAYLOAD","LAUNCH_DATE":"2021-12-02","COUNTRY_CODE":"US","TLE_LINE2":"2 49754  53.2176  74.1197 0009147  64.8252 295.3688 15.08824415 32051","TLE_LINE1":"1 49754U 21115AG  22180.88932136 -.00000209  00000-0  52165-5 0  9998","MEAN_ANOMALY":"295.3688","OBJECT_ID":"2021-115AG","DECAY_DATE":null,"PERIAPSIS":"533.465","SITE":"AFETR","MEAN_MOTION":"15.08824415","ECCENTRICITY":"0.00091470","MEAN_MOTION_DDOT":"0.0000000000000","PERIOD":"95.439","FILE":"3505610","NORAD_CAT_ID":"49754","CENTER_NAME":"EARTH","OBJECT_NAME":"STARLINK-3193","MEAN_MOTION_DOT":"-0.00000209","REF_FRAME":"TEME","BSTAR":"0.00000521650000","CLASSIFICATION_TYPE":"U"},{"APOAPSIS":"542.339","INCLINATION":"53.2186","RCS_SIZE":"LARGE","MEAN_ELEMENT_THEORY":"SGP4","LAUNCH_DATE":"2021-12-02","OBJECT_TYPE":"PAYLOAD","TIME_SYSTEM":"UTC","RA_OF_ASC_NODE":"84.1450","COUNTRY_CODE":"US","ELEMENT_SET_NO":"999","EPHEMERIS_TYPE":"0","EPOCH":"2022-06-29T21:12:35.659584","REV_AT_EPOCH":"3302","ARG_OF_PERICENTER":"68.8708","GP_ID":"207097424","SEMIMAJOR_AXIS":"6917.895","FILE":"3505594","CENTER_NAME":"EARTH","NORAD_CAT_ID":"49755","ECCENTRICITY":"0.00037290","PERIOD":"95.438","MEAN_MOTION_DDOT":"0.0000000000000","CLASSIFICATION_TYPE":"U","BSTAR":"0.00005551900000","REF_FRAME":"TEME","MEAN_MOTION_DOT":"0.00000595","OBJECT_NAME":"STARLINK-3210","MEAN_ANOMALY":"291.2683","OBJECT_ID":"2021-115AH","PERIAPSIS":"537.180","DECAY_DATE":null,"TLE_LINE2":"2 49755  53.2186  84.1450 0003729  68.8708 291.2683 15.08835364 33029","TLE_LINE1":"1 49755U 21115AH  22180.88374606  .00000595  00000-0  55519-4 0  9993","SITE":"AFETR","MEAN_MOTION":"15.08835364"},{"MEAN_ELEMENT_THEORY":"SGP4","INCLINATION":"53.2167","RCS_SIZE":"LARGE","APOAPSIS":"540.994","EPOCH":"2022-06-29T21:45:43.386624","EPHEMERIS_TYPE":"0","ELEMENT_SET_NO":"999","COUNTRY_CODE":"US","TIME_SYSTEM":"UTC","RA_OF_ASC_NODE":"74.0481","OBJECT_TYPE":"PAYLOAD","LAUNCH_DATE":"2021-12-02","REV_AT_EPOCH":"3205","GP_ID":"207121024","SEMIMAJOR_AXIS":"6917.905","ARG_OF_PERICENTER":"58.8363","MEAN_MOTION_DDOT":"0.0000000000000","PERIOD":"95.438","ECCENTRICITY":"0.00017690","NORAD_CAT_ID":"49756","FILE":"3505610","CENTER_NAME":"EARTH","OBJECT_NAME":"STARLINK-3207","MEAN_MOTION_DOT":"-0.00000281","REF_FRAME":"TEME","BSTAR":"0.00000041981000","CLASSIFICATION_TYPE":"U","TLE_LINE1":"1 49756U 21115AJ  22180.90675216 -.00000281  00000-0  41981-6 0  9991","TLE_LINE2":"2 49756  53.2167  74.0481 0001769  58.8363 301.2803 15.08832016 32058","DECAY_DATE":null,"PERIAPSIS":"538.546","MEAN_ANOMALY":"301.2803","OBJECT_ID":"2021-115AJ","SITE":"AFETR","MEAN_MOTION":"15.08832016"}];
